[{"OBJECT_NAME":"SAUDISAT 5B","OBJECT_ID":"2018-102C","EPOCH":"2026-03-09T22:59:17.457216","MEAN_MOTION":15.27248504,"ECCENTRICITY":0.00120577,"INCLINATION":97.3281,"RA_OF_ASC_NODE":135.3629,"ARG_OF_PERICENTER":124.0958,"MEAN_ANOMALY":236.1427,"EPHEMERIS_TYPE":0,"CLASSIFICATION_TYPE":"U","NORAD_CAT_ID":43833,"ELEMENT_SET_NO":999,"REV_AT_EPOCH":40064,"BSTAR":0.00024926623,"MEAN_MOTION_DOT":6.596e-5,"MEAN_MOTION_DDOT":0},{"OBJECT_NAME":"STARLINK-35846","OBJECT_ID":"2025-254V","EPOCH":"2026-03-09T17:01:50.596896","MEAN_MOTION":15.30210278,"ECCENTRICITY":0.00010302,"INCLINATION":53.1604,"RA_OF_ASC_NODE":232.0046,"ARG_OF_PERICENTER":136.8276,"MEAN_ANOMALY":223.2806,"EPHEMERIS_TYPE":0,"CLASSIFICATION_TYPE":"U","NORAD_CAT_ID":66367,"ELEMENT_SET_NO":999,"REV_AT_EPOCH":1898,"BSTAR":0.0014114954,"MEAN_MOTION_DOT":0.00041693,"MEAN_MOTION_DDOT":0}]
